[{"OBJECT_NAME":"STARLINK-34577","OBJECT_ID":"2025-142Z","EPOCH":"2026-03-09T20:22:49.679904","MEAN_MOTION":14.95911073,"ECCENTRICITY":0.0002346,"INCLINATION":70.0008,"RA_OF_ASC_NODE":314.0623,"ARG_OF_PERICENTER":271.1669,"MEAN_ANOMALY":88.922,"EPHEMERIS_TYPE":0,"CLASSIFICATION_TYPE":"U","NORAD_CAT_ID":64719,"ELEMENT_SET_NO":999,"REV_AT_EPOCH":3951,"BSTAR":0.00017350703,"MEAN_MOTION_DOT":1.855e-5,"MEAN_MOTION_DDOT":0},{"OBJECT_NAME":"UNKNOWN","OBJECT_ID":"","EPOCH":"2026-02-26T12:19:36.100992","MEAN_MOTION":14.93459114,"ECCENTRICITY":0.00108231,"INCLINATION":97.8131,"RA_OF_ASC_NODE":148.7516,"ARG_OF_PERICENTER":110.2597,"MEAN_ANOMALY":249.9787,"EPHEMERIS_TYPE":0,"CLASSIFICATION_TYPE":"U","NORAD_CAT_ID":270138,"ELEMENT_SET_NO":999,"REV_AT_EPOCH":33851,"BSTAR":0.00036632015,"MEAN_MOTION_DOT":3.799e-5,"MEAN_MOTION_DDOT":0}]
